{"type": "FeatureCollection", "features": [ {"type": "Feature", "properties": {"norad_id": 40701, "name": "GAOFEN-8", "group": "resource", "lat": -62.47238241017852, "lon": -167.4533793927121, "alt_km": 463.6526000687272, "timestamp": "2025-12-24T18:55:55.714373+00:00", "meta": {"OBJECT_NAME": "GAOFEN-8", "OBJECT_ID": "2015-030A", "EPOCH": "2025-12-24T06:43:26.445216", "MEAN_MOTION": 15.38946373, "ECCENTRICITY": 0.00114985, "INCLINATION": 97.6905, "RA_OF_ASC_NODE": 176.9856, "ARG_OF_PERICENTER": 97.2883, "MEAN_ANOMALY": 262.9669, "EPHEMERIS_TYPE": 0, "CLASSIFICATION_TYPE": "U", "NORAD_CAT_ID": 40701, "ELEMENT_SET_NO": 999, "REV_AT_EPOCH": 58448, "BSTAR": 0.00092346622, "MEAN_MOTION_DOT": 0.00035709, "MEAN_MOTION_DDOT": 0}, "tle": {"line1": "1 40701U 15030A   25358.28016719  .00035709  00000+0  92347-3 0  9999", "line2": "2 40701  97.6905 176.9856 0011498  97.2883 262.9669 15.38946373584480"}}, "geometry": {"type": "Point", "coordinates": [-167.4533793927121, -62.47238241017852]}}, {"type": "Feature", "properties": {"norad_id": 40718, "name": "CARBONITE 1 (CBNT-1)", "group": "resource", "lat": -36.09422952919103, "lon": -175.08194028350854, "alt_km": 637.5711570561107, "timestamp": "2025-12-24T18:55:55.714383+00:00", "meta": {"OBJECT_NAME": "CARBONITE 1 (CBNT-1)", "OBJECT_ID": "2015-032D", "EPOCH": "2025-12-24T07:45:35.366400", "MEAN_MOTION": 14.82794403, "ECCENTRICITY": 0.00153027, "INCLINATION": 97.6401, "RA_OF_ASC_NODE": 178.8571, "ARG_OF_PERICENTER": 144.1147, "MEAN_ANOMALY": 216.1098, "EPHEMERIS_TYPE": 0, "CLASSIFICATION_TYPE": "U", "NORAD_CAT_ID": 40718, "ELEMENT_SET_NO": 999, "REV_AT_EPOCH": 56342, "BSTAR": 0.00031727297, "MEAN_MOTION_DOT": 2.52e-05, "MEAN_MOTION_DDOT": 0}, "tle": {"line1": "1 40718U 15032D   25358.32332600  .00002520  00000+0  31727-3 0  9994", "line2": "2 40718  97.6401 178.8571 0015302 144.1147 216.1098 14.82794403563428"}}, "geometry": {"type": "Point", "coordinates": [-175.08194028350854, -36.09422952919103]}}, {"type": "Feature", "properties": {"norad_id": 40878, "name": "YAOGAN-27", "group": "resource", "lat": 2.2063111087526304, "lon": -12.529894781992235, "alt_km": 1203.7494118765453, "timestamp": "2025-12-24T18:55:55.714393+00:00", "meta": {"OBJECT_NAME": "YAOGAN-27", "OBJECT_ID": "2015-040A", "EPOCH": "2025-12-24T06:08:57.186816", "MEAN_MOTION": 13.16062693, "ECCENTRICITY": 0.00075428, "INCLINATION": 100.1015, "RA_OF_ASC_NODE": 347.3551, "ARG_OF_PERICENTER": 258.0878, "MEAN_ANOMALY": 101.939, "EPHEMERIS_TYPE": 0, "CLASSIFICATION_TYPE": "U", "NORAD_CAT_ID": 40878, "ELEMENT_SET_NO": 999, "REV_AT_EPOCH": 49465, "BSTAR": 0.0015216964, "MEAN_MOTION_DOT": 5.36e-06, "MEAN_MOTION_DDOT": 0}, "tle": {"line1": "1 40878U 15040A   25358.25621744  .00000536  00000+0  15217-2 0  9992", "line2": "2 40878 100.1015 347.3551 0007542 258.0878 101.9390 13.16062693494659"}}, "geometry": {"type": "Point", "coordinates": [-12.529894781992235, 2.2063111087526304]}}, {"type": "Feature", "properties": {"norad_id": 40894, "name": "GAOFEN-9 01", "group": "resource", "lat": -49.19931865163531, "lon": -151.73808961188848, "alt_km": 639.6571822867782, "timestamp": "2025-12-24T18:55:55.714403+00:00", "meta": {"OBJECT_NAME": "GAOFEN-9 01", "OBJECT_ID": "2015-047A", "EPOCH": "2025-12-24T06:33:29.617344", "MEAN_MOTION": 14.82449538, "ECCENTRICITY": 0.0027447, "INCLINATION": 97.6528, "RA_OF_ASC_NODE": 36.7299, "ARG_OF_PERICENTER": 357.0383, "MEAN_ANOMALY": 3.0664, "EPHEMERIS_TYPE": 0, "CLASSIFICATION_TYPE": "U", "NORAD_CAT_ID": 40894, "ELEMENT_SET_NO": 999, "REV_AT_EPOCH": 55427, "BSTAR": 0.00014352167, "MEAN_MOTION_DOT": 1.107e-05, "MEAN_MOTION_DDOT": 0}, "tle": {"line1": "1 40894U 15047A   25358.27325946  .00001107  00000+0  14352-3 0  9999", "line2": "2 40894  97.6528  36.7299 0027447 357.0383   3.0664 14.82449538554273"}}, "geometry": {"type": "Point", "coordinates": [-151.73808961188848, -49.19931865163531]}}, {"type": "Feature", "properties": {"norad_id": 41026, "name": "YAOGAN-28", "group": "resource", "lat": 40.04195468971459, "lon": 130.0740769405187, "alt_km": 483.2043654756426, "timestamp": "2025-12-24T18:55:55.714413+00:00", "meta": {"OBJECT_NAME": "YAOGAN-28", "OBJECT_ID": "2015-064A", "EPOCH": "2025-12-24T07:43:43.316832", "MEAN_MOTION": 15.24532253, "ECCENTRICITY": 0.00126654, "INCLINATION": 97.2817, "RA_OF_ASC_NODE": 135.7889, "ARG_OF_PERICENTER": 89.3242, "MEAN_ANOMALY": 270.9447, "EPHEMERIS_TYPE": 0, "CLASSIFICATION_TYPE": "U", "NORAD_CAT_ID": 41026, "ELEMENT_SET_NO": 999, "REV_AT_EPOCH": 56401, "BSTAR": 0.00035570577, "MEAN_MOTION_DOT": 8.705e-05, "MEAN_MOTION_DDOT": 0}, "tle": {"line1": "1 41026U 15064A   25358.32202913  .00008705  00000+0  35571-3 0  9997", "line2": "2 41026  97.2817 135.7889 0012665  89.3242 270.9447 15.24532253564019"}}, "geometry": {"type": "Point", "coordinates": [130.0740769405187, 40.04195468971459]}}, {"type": "Feature", "properties": {"norad_id": 41038, "name": "YAOGAN-29", "group": "resource", "lat": 41.662023952402855, "lon": -150.79453474704542, "alt_km": 616.3537237763894, "timestamp": "2025-12-24T18:55:55.714423+00:00", "meta": {"OBJECT_NAME": "YAOGAN-29", "OBJECT_ID": "2015-069A", "EPOCH": "2025-12-24T06:58:36.969024", "MEAN_MOTION": 14.82894733, "ECCENTRICITY": 8.23e-05, "INCLINATION": 98.0204, "RA_OF_ASC_NODE": 21.4986, "ARG_OF_PERICENTER": 167.9193, "MEAN_ANOMALY": 192.204, "EPHEMERIS_TYPE": 0, "CLASSIFICATION_TYPE": "U", "NORAD_CAT_ID": 41038, "ELEMENT_SET_NO": 999, "REV_AT_EPOCH": 54470, "BSTAR": 0.0001045433, "MEAN_MOTION_DOT": 7.93e-06, "MEAN_MOTION_DDOT": 0}, "tle": {"line1": "1 41038U 15069A   25358.29070566  .00000793  00000+0  10454-3 0  9990", "line2": "2 41038  98.0204  21.4986 0000823 167.9193 192.2040 14.82894733544707"}}, "geometry": {"type": "Point", "coordinates": [-150.79453474704542, 41.662023952402855]}}, {"type": "Feature", "properties": {"norad_id": 41167, "name": "KENT RIDGE 1", "group": "resource", "lat": 13.872671913591484, "lon": -125.73692103855075, "alt_km": 501.7035469544353, "timestamp": "2025-12-24T18:55:55.714433+00:00", "meta": {"OBJECT_NAME": "KENT RIDGE 1", "OBJECT_ID": "2015-077B", "EPOCH": "2025-12-23T17:16:23.896128", "MEAN_MOTION": 15.21715063, "ECCENTRICITY": 0.00085411, "INCLINATION": 14.9789, "RA_OF_ASC_NODE": 129.6607, "ARG_OF_PERICENTER": 285.8156, "MEAN_ANOMALY": 74.1224, "EPHEMERIS_TYPE": 0, "CLASSIFICATION_TYPE": "U", "NORAD_CAT_ID": 41167, "ELEMENT_SET_NO": 999, "REV_AT_EPOCH": 55431, "BSTAR": 0.00016014637, "MEAN_MOTION_DOT": 4.493e-05, "MEAN_MOTION_DDOT": 0}, "tle": {"line1": "1 41167U 15077B   25357.71972102  .00004493  00000+0  16015-3 0  9995", "line2": "2 41167  14.9789 129.6607 0008541 285.8156  74.1224 15.21715063554312"}}, "geometry": {"type": "Point", "coordinates": [-125.73692103855075, 13.872671913591484]}}, {"type": "Feature", "properties": {"norad_id": 41194, "name": "GAOFEN-4", "group": "resource", "lat": 0.15219602470730179, "lon": 123.22647407987988, "alt_km": 35778.779616147156, "timestamp": "2025-12-24T18:55:55.714447+00:00", "meta": {"OBJECT_NAME": "GAOFEN-4", "OBJECT_ID": "2015-083A", "EPOCH": "2025-12-19T15:27:26.627616", "MEAN_MOTION": 1.00273138, "ECCENTRICITY": 0.0002945, "INCLINATION": 0.1878, "RA_OF_ASC_NODE": 81.7841, "ARG_OF_PERICENTER": 93.4275, "MEAN_ANOMALY": 250.8523, "EPHEMERIS_TYPE": 0, "CLASSIFICATION_TYPE": "U", "NORAD_CAT_ID": 41194, "ELEMENT_SET_NO": 999, "REV_AT_EPOCH": 3672, "BSTAR": 0, "MEAN_MOTION_DOT": -3.11e-06, "MEAN_MOTION_DDOT": 0}, "tle": {"line1": "1 41194U 15083A   25353.64405819 -.00000311  00000+0  00000+0 0  9995", "line2": "2 41194   0.1878  81.7841 0002945  93.4275 250.8523  1.00273138 36722"}}, "geometry": {"type": "Point", "coordinates": [123.22647407987988, 0.15219602470730179]}}, {"type": "Feature", "properties": {"norad_id": 41240, "name": "JASON-3", "group": "resource", "lat": -0.8955208096303756, "lon": 132.09425324341774, "alt_km": 1312.7807022385887, "timestamp": "2025-12-24T18:55:55.714459+00:00", "meta": {"OBJECT_NAME": "JASON-3", "OBJECT_ID": "2016-002A", "EPOCH": "2025-12-24T05:53:19.218912", "MEAN_MOTION": 12.87627021, "ECCENTRICITY": 0.00072805, "INCLINATION": 66.0403, "RA_OF_ASC_NODE": 133.6348, "ARG_OF_PERICENTER": 271.4571, "MEAN_ANOMALY": 88.5614, "EPHEMERIS_TYPE": 0, "CLASSIFICATION_TYPE": "U", "NORAD_CAT_ID": 41240, "ELEMENT_SET_NO": 999, "REV_AT_EPOCH": 46472, "BSTAR": 9.4685066e-05, "MEAN_MOTION_DOT": -3.8e-07, "MEAN_MOTION_DDOT": 0}, "tle": {"line1": "1 41240U 16002A   25358.24536133 -.00000038  00000+0  94685-4 0  9997", "line2": "2 41240  66.0403 133.6348 0007280 271.4571  88.5614 12.87627021464725"}}, "geometry": {"type": "Point", "coordinates": [132.09425324341774, -0.8955208096303756]}}, {"type": "Feature", "properties": {"norad_id": 41335, "name": "SENTINEL-3A", "group": "resource", "lat": -72.71583054289877, "lon": 92.84610455608721, "alt_km": 810.5795522970138, "timestamp": "2025-12-24T18:55:55.714469+00:00", "meta": {"OBJECT_NAME": "SENTINEL-3A", "OBJECT_ID": "2016-011A", "EPOCH": "2025-12-24T05:49:05.289312", "MEAN_MOTION": 14.26735006, "ECCENTRICITY": 8.955e-05, "INCLINATION": 98.6298, "RA_OF_ASC_NODE": 63.0944, "ARG_OF_PERICENTER": 96.9319, "MEAN_ANOMALY": 263.1963, "EPHEMERIS_TYPE": 0, "CLASSIFICATION_TYPE": "U", "NORAD_CAT_ID": 41335, "ELEMENT_SET_NO": 999, "REV_AT_EPOCH": 51311, "BSTAR": 7.4181594e-05, "MEAN_MOTION_DOT": 1.36e-06, "MEAN_MOTION_DDOT": 0}, "tle": {"line1": "1 41335U 16011A   25358.24242233  .00000136  00000+0  74182-4 0  9995", "line2": "2 41335  98.6298  63.0944 0000895  96.9319 263.1963 14.26735006513110"}}, "geometry": {"type": "Point", "coordinates": [92.84610455608721, -72.71583054289877]}}]}